STARLINK-6210           
1 56485U 23064AP  26192.39525845  .00000211  00000+0  25516-4 0  9990
2 56485  69.9997 172.3664 0003355 268.6792  91.3983 14.98326307174271
STARLINK-6196           
1 56487U 23064AR  26191.31019499  .00000908  00000+0  83887-4 0  9994
2 56487  69.9993 155.1370 0002968 270.3190  89.7629 14.98327813174601
STARLINK-6204           
1 56488U 23064AS  26192.28657353  .00000504  00000+0  50020-4 0  9994
2 56488  69.9998 152.9227 0003183 267.8023  92.2772 14.98328803174742
STARLINK-5923           
1 56489U 23064AT  26192.34080705  .00000368  00000+0  38664-4 0  9991
2 56489  70.0007 152.7097 0003108 273.0141  87.0662 14.98335287174752
STARLINK-5873           
1 56490U 23064AU  26192.29490457 -.00000092  00000+0  98877-7 0  9996
2 56490  69.9997 152.9508 0003564 263.8198  96.2555 14.98329309174743
STARLINK-5842           
1 56491U 23064AV  26191.33523827  .00000378  00000+0  39514-4 0  9995
2 56491  69.9992 155.2197 0003132 268.6297  91.4503 14.98326549174601
STARLINK-5846           
1 56492U 23064AW  26190.32965169  .00000348  00000+0  36987-4 0  9991
2 56492  69.9982 157.7307 0003211 266.7879  93.2912 14.98328919174454
STARLINK-5841           
1 56493U 23064AX  26192.25293818  .00000356  00000+0  37581-4 0  9991
2 56493  70.0005 132.9229 0003008 269.1788  90.9027 14.98336778175232
STARLINK-5530           
1 56494U 23064AY  26192.33260904  .00000581  00000+0  56484-4 0  9994
2 56494  69.9998 152.6811 0003457 264.2320  95.8444 14.98333411174746
STARLINK-5529           
1 56495U 23064AZ  26190.65510123 -.00003648  00000+0 -29787-3 0  9993
2 56495  69.9990 156.8586 0003254 271.5402  88.5384 14.98355732174507
STARLINK-5526           
1 56496U 23064BA  26191.31850993  .00001057  00000+0  96367-4 0  9999
2 56496  69.9976 155.1611 0004344 264.0076  96.0588 14.98338182174609
STARLINK-5527           
1 56497U 23064BB  26192.00002315 -.00041882  00000+0 -35204-2 0  9997
2 56497  70.0009 153.4189 0003822 261.6261 195.0229 14.98359563  5320
STARLINK-5522           
1 56498U 23064BC  26190.32548173  .00000341  00000+0  36376-4 0  9994
2 56498  70.0006 157.7152 0003226 268.6900  91.3889 14.98322016174454
STARLINK-5775           
1 56503U 23065A   26192.47626475  .00000048  00000+0  11274-4 0  9996
2 56503  43.0013 233.2075 0001237 271.4732  88.5978 15.27576574175538
STARLINK-5716           
1 56504U 23065B   26192.16348068 -.00001428  00000+0 -42407-4 0  9999
2 56504  42.9994 235.1554 0000393 156.4217 203.6653 15.27566349175483
STARLINK-5763           
1 56505U 23065C   26192.45070635  .00001393  00000+0  60124-4 0  9999
2 56505  43.0032 233.8705 0001595 275.6129  84.4540 15.27591343175520
STARLINK-5340           
1 56506U 23065D   26191.45193651 -.00001324  00000+0 -38607-4 0  9990
2 56506  43.0018 227.9658 0001402 276.1762  83.8930 15.27573574175502
STARLINK-5333           
1 56507U 23065E   26192.45083303  .00004150  00000+0  15992-3 0  9993
2 56507  43.0020 200.7910 0002662 297.2232  62.8348 15.27647889175906
STARLINK-5335           
1 56508U 23065F   26192.13519788 -.00000166  00000+0  34962-5 0  9994
2 56508  42.9987 234.9401 0001272 221.7629 138.3125 15.27588180175482
STARLINK-5334           
1 56509U 23065G   26192.47369080 -.00001048  00000+0 -28553-4 0  9999
2 56509  43.0008 233.1795 0001586 263.9194  96.1477 15.27575510175539
STARLINK-5339           
1 56510U 23065H   26192.46600194 -.00000968  00000+0 -25658-4 0  9997
2 56510  42.9999 233.1300 0001344 268.3616  91.7082 15.27564821175536
STARLINK-5351           
1 56511U 23065J   26192.48011800  .00001429  00000+0  61438-4 0  9997
2 56511  42.9999 233.2239 0001061 266.7903  93.2827 15.27582346175532
STARLINK-5349           
1 56512U 23065K   26192.46983524  .00000567  00000+0  30146-4 0  9991
2 56512  43.0000 233.1454 0001190 269.1608  90.9107 15.27573528175535
STARLINK-5329           
1 56513U 23065L   26192.48397792  .00011304  00000+0  42051-3 0  9998
2 56513  43.0015 233.2582 0001167 262.6405  97.4314 15.27514816175539
STARLINK-5348           
1 56515U 23065N   26191.57241497 -.00002255  00000+0 -72437-4 0  9998
2 56515  43.0027 238.4512 0001642 302.1170  57.9522 15.27583199175397
STARLINK-5342           
1 56516U 23065P   26192.47754845 -.00000240  00000+0  79006-6 0  9997
2 56516  43.0014 233.2117 0001478 275.9496  84.1187 15.27574186175534
STARLINK-5345           
1 56517U 23065Q   26192.17246061  .00000611  00000+0  31727-4 0  9998
2 56517  43.0044 235.2100 0001531 282.4944  77.5736 15.27585443175481
STARLINK-5346           
1 56518U 23065R   26192.49167697 -.00000395  00000+0 -48187-5 0  9991
2 56518  43.0019 233.3121 0001359 267.0273  93.0423 15.27574964175536
STARLINK-6313           
1 56519U 23065S   26192.17888206 -.00000924  00000+0 -24034-4 0  9995
2 56519  43.0028 235.2539 0001710 284.5323  75.5339 15.27581973175485
STARLINK-6344           
1 56520U 23065T   26192.43014684 -.00000749  00000+0 -17698-4 0  9990
2 56520  43.0046 233.7072 0001737 267.5640  92.5013 15.27582849175520
