OBJECT_NAME,OBJECT_ID,EPOCH,MEAN_MOTION,ECCENTRICITY,INCLINATION,RA_OF_ASC_NODE,ARG_OF_PERICENTER,MEAN_ANOMALY,EPHEMERIS_TYPE,CLASSIFICATION_TYPE,NORAD_CAT_ID,ELEMENT_SET_NO,REV_AT_EPOCH,BSTAR,MEAN_MOTION_DOT,MEAN_MOTION_DDOT
STARLINK-6210,2023-064AP,2026-07-11T09:29:10.330080,14.98326307,.0003355,69.9997,172.3664,268.6792,91.3983,0,U,56485,999,17427,.25516E-4,.211E-5,0
STARLINK-6196,2023-064AR,2026-07-10T07:26:40.847136,14.98327813,.00029684,69.9993,155.1370,270.3190,89.7629,0,U,56487,999,17460,.83887352E-4,.908E-5,0
STARLINK-6204,2023-064AS,2026-07-11T06:52:39.952992,14.98328803,.0003183,69.9998,152.9227,267.8023,92.2772,0,U,56488,999,17474,.5002E-4,.504E-5,0
STARLINK-5923,2023-064AT,2026-07-11T08:10:45.729120,14.98335287,.0003108,70.0007,152.7097,273.0141,87.0662,0,U,56489,999,17475,.38664E-4,.368E-5,0
STARLINK-5873,2023-064AU,2026-07-11T07:04:39.754848,14.98329309,.0003564,69.9997,152.9508,263.8198,96.2555,0,U,56490,999,17474,.98877E-7,-.92E-6,0
STARLINK-5842,2023-064AV,2026-07-10T08:02:44.586528,14.98326549,.00031329,69.9992,155.2197,268.6297,91.4503,0,U,56491,999,17460,.39513691E-4,.378E-5,0
STARLINK-5846,2023-064AW,2026-07-09T07:54:41.906016,14.98328919,.00032117,69.9982,157.7307,266.7879,93.2912,0,U,56492,999,17445,.36987072E-4,.348E-5,0
STARLINK-5841,2023-064AX,2026-07-11T06:04:13.858752,14.98336778,.0003008,70.0005,132.9229,269.1788,90.9027,0,U,56493,999,17523,.37581E-4,.356E-5,0
STARLINK-5530,2023-064AY,2026-07-11T07:58:57.421056,14.98333411,.0003457,69.9998,152.6811,264.2320,95.8444,0,U,56494,999,17474,.56484E-4,.581E-5,0
STARLINK-5529,2023-064AZ,2026-07-09T15:43:20.746272,14.98355732,.00032548,69.9990,156.8586,271.5402,88.5384,0,U,56495,999,17450,-.29786779E-3,-.3648E-4,0
STARLINK-5526,2023-064BA,2026-07-10T07:38:39.257952,14.98338182,.00043445,69.9976,155.1611,264.0076,96.0588,0,U,56496,999,17460,.96367193E-4,.1057E-4,0
STARLINK-5527,2023-064BB,2026-07-11T00:00:02.000160,14.98359563,.0003822,70.0009,153.4189,261.6261,195.0229,0,U,56497,999,532,-.35204E-2,-.41882E-3,0
STARLINK-5522,2023-064BC,2026-07-09T07:48:41.621472,14.98322016,.00032267,70.0006,157.7152,268.6900,91.3889,0,U,56498,999,17445,.36375711E-4,.341E-5,0
STARLINK-5775,2023-065A,2026-07-11T11:25:49.274400,15.27576574,.0001237,43.0013,233.2075,271.4732,88.5978,0,U,56503,999,17553,.11274E-4,.48E-6,0
STARLINK-5716,2023-065B,2026-07-11T03:55:24.730752,15.27566349,.0000393,42.9994,235.1554,156.4217,203.6653,0,U,56504,999,17548,-.42407E-4,-.1428E-4,0
STARLINK-5763,2023-065C,2026-07-11T10:49:01.028640,15.27591343,.0001595,43.0032,233.8705,275.6129,84.4540,0,U,56505,999,17552,.60124E-4,.1393E-4,0
STARLINK-5340,2023-065D,2026-07-10T10:50:47.314464,15.27573574,.00014025,43.0018,227.9658,276.1762,83.8930,0,U,56506,999,17550,-.38606862E-4,-.1324E-4,0
STARLINK-5333,2023-065E,2026-07-11T10:49:11.973792,15.27647889,.0002662,43.0020,200.7910,297.2232,62.8348,0,U,56507,999,17590,.15992E-3,.415E-4,0
STARLINK-5335,2023-065F,2026-07-11T03:14:41.096832,15.27588180,.0001272,42.9987,234.9401,221.7629,138.3125,0,U,56508,999,17548,.34962E-5,-.166E-5,0
STARLINK-5334,2023-065G,2026-07-11T11:22:06.885120,15.27575510,.0001586,43.0008,233.1795,263.9194,96.1477,0,U,56509,999,17553,-.28553E-4,-.1048E-4,0
STARLINK-5339,2023-065H,2026-07-11T11:11:02.567616,15.27564821,.0001344,42.9999,233.1300,268.3616,91.7082,0,U,56510,999,17553,-.25658E-4,-.968E-5,0
STARLINK-5351,2023-065J,2026-07-11T11:31:22.195200,15.27582346,.0001061,42.9999,233.2239,266.7903,93.2827,0,U,56511,999,17553,.61438E-4,.1429E-4,0
STARLINK-5349,2023-065K,2026-07-11T11:16:33.764736,15.27573528,.000119,43.0000,233.1454,269.1608,90.9107,0,U,56512,999,17553,.30146E-4,.567E-5,0
STARLINK-5329,2023-065L,2026-07-11T11:36:55.692288,15.27514816,.0001167,43.0015,233.2582,262.6405,97.4314,0,U,56513,999,17553,.42051E-3,.11304E-3,0
STARLINK-5348,2023-065N,2026-07-10T13:44:16.653408,15.27583199,.0001642,43.0027,238.4512,302.1170,57.9522,0,U,56515,999,17539,-.72437E-4,-.2255E-4,0
STARLINK-5342,2023-065P,2026-07-11T11:27:40.186080,15.27574186,.0001478,43.0014,233.2117,275.9496,84.1187,0,U,56516,999,17553,.79006E-6,-.24E-5,0
STARLINK-5345,2023-065Q,2026-07-11T04:08:20.596704,15.27585443,.0001531,43.0044,235.2100,282.4944,77.5736,0,U,56517,999,17548,.31727E-4,.611E-5,0
STARLINK-5346,2023-065R,2026-07-11T11:48:00.890208,15.27574964,.0001359,43.0019,233.3121,267.0273,93.0423,0,U,56518,999,17553,-.48187E-5,-.395E-5,0
STARLINK-6313,2023-065S,2026-07-11T04:17:35.409984,15.27581973,.000171,43.0028,235.2539,284.5323,75.5339,0,U,56519,999,17548,-.24034E-4,-.924E-5,0
STARLINK-6344,2023-065T,2026-07-11T10:19:24.686976,15.27582849,.0001737,43.0046,233.7072,267.5640,92.5013,0,U,56520,999,17552,-.17698E-4,-.749E-5,0
